IRIDIUM 150             
1 43257U 18030J   25193.37545554  .00000049  00000+0  10316-4 0  9998
2 43257  86.3941  72.5324 0001909  83.5920 276.5493 14.34217810381451
IRIDIUM 143             
1 43258U 18030K   25193.63550119  .00000072  00000+0  18544-4 0  9998
2 43258  86.3945  72.5031 0001668  83.9533 276.1853 14.34218025381429
IRIDIUM 161             
1 43478U 18047C   25193.51721248  .00000228  00000+0  61743-4 0  9992
2 43478  86.4478 230.3517 0002595  91.1578 268.9920 14.43277868376145
IRIDIUM 152             
1 43479U 18047D   25193.46868360  .00000023  00000+0  11225-5 0  9998
2 43479  86.3955 230.2326 0002319  89.7906 270.3555 14.34217715373798
IRIDIUM 147             
1 43480U 18047E   25193.54479503  .00000031  00000+0  38922-5 0  9998
2 43480  86.3954 230.2001 0002402  95.2374 264.9096 14.34217762373806
IRIDIUM 110             
1 43481U 18047F   25193.48136994  .00000040  00000+0  71920-5 0  9991
2 43481  86.3956 230.3094 0002831  91.6658 268.4862 14.34217813373787
IRIDIUM 162             
1 43482U 18047G   25193.51090625  .00000237  00000+0  64553-4 0  9997
2 43482  86.4477 230.2494 0002663  88.0417 272.1089 14.43276509376138
IRIDIUM 160             
1 43569U 18061A   25193.49697279  .00000039  00000+0  67995-5 0  9998
2 43569  86.3983 198.7108 0002536  89.5313 270.6173 14.34218163364681
